{
  "type": "FeatureCollection",
  "features": [
    {
      "type": "Feature",
      "properties": {
        "norad_id": 22490,
        "name": "SCD 1",
        "group": "resource",
        "lat": 14.183435867860405,
        "lon": 34.462006908828684,
        "alt_km": 752.0554649170381,
        "timestamp": "2025-12-17T19:34:07.701077+00:00",
        "meta_object_name": "SCD 1",
        "meta_object_id": "1993-009B",
        "meta_epoch": "2025-12-17T02:51:01.760832",
        "meta_mean_motion": 14.46002208,
        "meta_eccentricity": 0.00419834,
        "meta_inclination": 24.9689,
        "meta_ra_of_asc_node": 251.6554,
        "meta_arg_of_pericenter": 11.4415,
        "meta_mean_anomaly": 99.0431,
        "meta_ephemeris_type": 0,
        "meta_classification_type": "U",
        "meta_norad_cat_id": 22490,
        "meta_element_set_no": 999,
        "meta_rev_at_epoch": 73473,
        "meta_bstar": 8.1161296e-05,
        "meta_mean_motion_dot": 4.82e-06,
        "meta_mean_motion_ddot": 0,
        "tle_line1": "1 22490U 93009B   25351.11877038  .00000482  00000+0  81161-4 0  9993",
        "tle_line2": "2 22490  24.9689 251.6554 0041983  11.4415  99.0431 14.46002208734733"
      },
      "geometry": {
        "type": "Point",
        "coordinates": [
          34.462006908828684,
          14.183435867860405
        ]
      }
    },
    {
      "type": "Feature",
      "properties": {
        "norad_id": 25397,
        "name": "TECHSAT 1B (GO-32)",
        "group": "resource",
        "lat": -77.37182407852501,
        "lon": 110.17152302108714,
        "alt_km": 819.0547208726175,
        "timestamp": "2025-12-17T19:34:07.701104+00:00",
        "meta_object_name": "TECHSAT 1B (GO-32)",
        "meta_object_id": "1998-043D",
        "meta_epoch": "2025-12-16T22:06:57.699360",
        "meta_mean_motion": 14.24378325,
        "meta_eccentricity": 0.00019394,
        "meta_inclination": 98.9923,
        "meta_ra_of_asc_node": 334.2302,
        "meta_arg_of_pericenter": 50.656,
        "meta_mean_anomaly": 309.479,
        "meta_ephemeris_type": 0,
        "meta_classification_type": "U",
        "meta_norad_cat_id": 25397,
        "meta_element_set_no": 999,
        "meta_rev_at_epoch": 42538,
        "meta_bstar": 5.5557543e-05,
        "meta_mean_motion_dot": 8.2e-07,
        "meta_mean_motion_ddot": 0,
        "tle_line1": "1 25397U 98043D   25350.92150115  .00000082  00000+0  55558-4 0  9990",
        "tle_line2": "2 25397  98.9923 334.2302 0001939  50.6560 309.4790 14.24378325425382"
      },
      "geometry": {
        "type": "Point",
        "coordinates": [
          110.17152302108714,
          -77.37182407852501
        ]
      }
    },
    {
      "type": "Feature",
      "properties": {
        "norad_id": 25504,
        "name": "SCD 2",
        "group": "resource",
        "lat": 6.0099114847356905,
        "lon": -82.45960359455134,
        "alt_km": 748.9419003089879,
        "timestamp": "2025-12-17T19:34:07.701120+00:00",
        "meta_object_name": "SCD 2",
        "meta_object_id": "1998-060A",
        "meta_epoch": "2025-12-17T01:19:12.722304",
        "meta_mean_motion": 14.4542574,
        "meta_eccentricity": 0.00168331,
        "meta_inclination": 24.994,
        "meta_ra_of_asc_node": 115.2869,
        "meta_arg_of_pericenter": 359.4431,
        "meta_mean_anomaly": 161.4979,
        "meta_ephemeris_type": 0,
        "meta_classification_type": "U",
        "meta_norad_cat_id": 25504,
        "meta_element_set_no": 999,
        "meta_rev_at_epoch": 43394,
        "meta_bstar": 6.1586514e-05,
        "meta_mean_motion_dot": 4.02e-06,
        "meta_mean_motion_ddot": 0,
        "tle_line1": "1 25504U 98060A   25351.05500836  .00000402  00000+0  61587-4 0  9998",
        "tle_line2": "2 25504  24.9940 115.2869 0016833 359.4431 161.4979 14.45425740433944"
      },
      "geometry": {
        "type": "Point",
        "coordinates": [
          -82.45960359455134,
          6.0099114847356905
        ]
      }
    },
    {
      "type": "Feature",
      "properties": {
        "norad_id": 25757,
        "name": "DLR-TUBSAT",
        "group": "resource",
        "lat": -81.33789781323537,
        "lon": 66.42258361777272,
        "alt_km": 725.770758498622,
        "timestamp": "2025-12-17T19:34:07.701132+00:00",
        "meta_object_name": "DLR-TUBSAT",
        "meta_object_id": "1999-029B",
        "meta_epoch": "2025-12-16T22:29:19.087008",
        "meta_mean_motion": 14.52359362,
        "meta_eccentricity": 0.00141675,
        "meta_inclination": 98.6565,
        "meta_ra_of_asc_node": 335.5804,
        "meta_arg_of_pericenter": 179.8219,
        "meta_mean_anomaly": 180.2983,
        "meta_ephemeris_type": 0,
        "meta_classification_type": "U",
        "meta_norad_cat_id": 25757,
        "meta_element_set_no": 999,
        "meta_rev_at_epoch": 40679,
        "meta_bstar": 4.043002e-05,
        "meta_mean_motion_dot": 1.16e-06,
        "meta_mean_motion_ddot": 0,
        "tle_line1": "1 25757U 99029B   25350.93702647  .00000116  00000+0  40430-4 0  9990",
        "tle_line2": "2 25757  98.6565 335.5804 0014167 179.8219 180.2983 14.52359362406798"
      },
      "geometry": {
        "type": "Point",
        "coordinates": [
          66.42258361777272,
          -81.33789781323537
        ]
      }
    },
    {
      "type": "Feature",
      "properties": {
        "norad_id": 25994,
        "name": "TERRA",
        "group": "resource",
        "lat": 50.520155703564534,
        "lon": -126.88874805287965,
        "alt_km": 683.8108990910296,
        "timestamp": "2025-12-17T19:34:07.701144+00:00",
        "meta_object_name": "TERRA",
        "meta_object_id": "1999-068A",
        "meta_epoch": "2025-12-17T07:47:11.255712",
        "meta_mean_motion": 14.60907171,
        "meta_eccentricity": 0.0003582,
        "meta_inclination": 97.9744,
        "meta_ra_of_asc_node": 42.8406,
        "meta_arg_of_pericenter": 85.5469,
        "meta_mean_anomaly": 342.7547,
        "meta_ephemeris_type": 0,
        "meta_classification_type": "U",
        "meta_norad_cat_id": 25994,
        "meta_element_set_no": 999,
        "meta_rev_at_epoch": 38305,
        "meta_bstar": 9.6205437e-05,
        "meta_mean_motion_dot": 4.26e-06,
        "meta_mean_motion_ddot": 0,
        "tle_line1": "1 25994U 99068A   25351.32443583  .00000426  00000+0  96205-4 0  9996",
        "tle_line2": "2 25994  97.9744  42.8406 0003582  85.5469 342.7547 14.60907171383057"
      },
      "geometry": {
        "type": "Point",
        "coordinates": [
          -126.88874805287965,
          50.520155703564534
        ]
      }
    },
    {
      "type": "Feature",
      "properties": {
        "norad_id": 27004,
        "name": "MAROC-TUBSAT",
        "group": "resource",
        "lat": -78.56160175273742,
        "lon": -78.23765011080874,
        "alt_km": 992.4705501501358,
        "timestamp": "2025-12-17T19:34:07.701157+00:00",
        "meta_object_name": "MAROC-TUBSAT",
        "meta_object_id": "2001-056D",
        "meta_epoch": "2025-12-17T08:05:32.106624",
        "meta_mean_motion": 13.70253139,
        "meta_eccentricity": 0.00191349,
        "meta_inclination": 99.7912,
        "meta_ra_of_asc_node": 159.8626,
        "meta_arg_of_pericenter": 247.8877,
        "meta_mean_anomaly": 178.458,
        "meta_ephemeris_type": 0,
        "meta_classification_type": "U",
        "meta_norad_cat_id": 27004,
        "meta_element_set_no": 999,
        "meta_rev_at_epoch": 20128,
        "meta_bstar": 2.6705369e-05,
        "meta_mean_motion_dot": -2.3e-07,
        "meta_mean_motion_ddot": 0,
        "tle_line1": "1 27004U 01056D   25351.33717716 -.00000023  00000+0  26705-4 0  9995",
        "tle_line2": "2 27004  99.7912 159.8626 0019134 247.8877 178.4580 13.70253139201280"
      },
      "geometry": {
        "type": "Point",
        "coordinates": [
          -78.23765011080874,
          -78.56160175273742
        ]
      }
    },
    {
      "type": "Feature",
      "properties": {
        "norad_id": 27424,
        "name": "AQUA",
        "group": "resource",
        "lat": 20.219932673694487,
        "lon": -50.34448578472158,
        "alt_km": 687.3477849805613,
        "timestamp": "2025-12-17T19:34:07.701168+00:00",
        "meta_object_name": "AQUA",
        "meta_object_id": "2002-022A",
        "meta_epoch": "2025-12-17T08:31:26.563584",
        "meta_mean_motion": 14.61820032,
        "meta_eccentricity": 0.00012648,
        "meta_inclination": 98.4042,
        "meta_ra_of_asc_node": 312.3093,
        "meta_arg_of_pericenter": 113.4932,
        "meta_mean_anomaly": 6.6916,
        "meta_ephemeris_type": 0,
        "meta_classification_type": "U",
        "meta_norad_cat_id": 27424,
        "meta_element_set_no": 999,
        "meta_rev_at_epoch": 25670,
        "meta_bstar": 0.00019120415,
        "meta_mean_motion_dot": 9.06e-06,
        "meta_mean_motion_ddot": 0,
        "tle_line1": "1 27424U 02022A   25351.35516856  .00000906  00000+0  19120-3 0  9990",
        "tle_line2": "2 27424  98.4042 312.3093 0001264 113.4932   6.6916 14.61820032256700"
      },
      "geometry": {
        "type": "Point",
        "coordinates": [
          -50.34448578472158,
          20.219932673694487
        ]
      }
    }
  ]
}